{"type": "FeatureCollection", "features": [ {"type": "Feature", "properties": {"norad_id": 66816, "name": "STARLINK-36098", "group": "last-30-days", "lat": 17.321854579796675, "lon": 31.46758083903259, "alt_km": 337.8103665285307, "timestamp": "2025-12-16T03:53:25.816994+00:00", "meta": {"OBJECT_NAME": "STARLINK-36098", "OBJECT_ID": "2025-278AB", "EPOCH": "2025-12-15T06:00:04.999968", "MEAN_MOTION": 15.79654271, "ECCENTRICITY": 0.00018784, "INCLINATION": 42.9976, "RA_OF_ASC_NODE": 236.584, "ARG_OF_PERICENTER": 279.2612, "MEAN_ANOMALY": 86.5516, "EPHEMERIS_TYPE": 0, "CLASSIFICATION_TYPE": "U", "NORAD_CAT_ID": 66816, "ELEMENT_SET_NO": 999, "REV_AT_EPOCH": 320, "BSTAR": -0.0087059437, "MEAN_MOTION_DOT": -0.01454757, "MEAN_MOTION_DDOT": 0}, "tle": {"line1": "1 66816U 25278AB  25349.25005787 -.01454757  00000+0 -87059-2 0  9993", "line2": "2 66816  42.9976 236.5840 0001878 279.2612  86.5516 15.79654271  3200"}}, "geometry": {"type": "Point", "coordinates": [31.46758083903259, 17.321854579796675]}}, {"type": "Feature", "properties": {"norad_id": 66817, "name": "STARLINK-35995", "group": "last-30-days", "lat": 14.613588226733581, "lon": 34.76258254307054, "alt_km": 338.6593285902527, "timestamp": "2025-12-16T03:53:25.817005+00:00", "meta": {"OBJECT_NAME": "STARLINK-35995", "OBJECT_ID": "2025-278AC", "EPOCH": "2025-12-15T06:00:04.999968", "MEAN_MOTION": 15.79517607, "ECCENTRICITY": 0.00018581, "INCLINATION": 42.9975, "RA_OF_ASC_NODE": 236.5719, "ARG_OF_PERICENTER": 279.9561, "MEAN_ANOMALY": 90.5522, "EPHEMERIS_TYPE": 0, "CLASSIFICATION_TYPE": "U", "NORAD_CAT_ID": 66817, "ELEMENT_SET_NO": 999, "REV_AT_EPOCH": 336, "BSTAR": -0.0088992971, "MEAN_MOTION_DOT": -0.01475, "MEAN_MOTION_DDOT": 0}, "tle": {"line1": "1 66817U 25278AC  25349.25005787 -.01475000  00000+0 -88993-2 0  9996", "line2": "2 66817  42.9975 236.5719 0001858 279.9561  90.5522 15.79517607  3363"}}, "geometry": {"type": "Point", "coordinates": [34.76258254307054, 14.613588226733581]}}, {"type": "Feature", "properties": {"norad_id": 66818, "name": "STARLINK-35994", "group": "last-30-days", "lat": 15.936912440336817, "lon": 33.17159789257987, "alt_km": 338.23740314844326, "timestamp": "2025-12-16T03:53:25.817015+00:00", "meta": {"OBJECT_NAME": "STARLINK-35994", "OBJECT_ID": "2025-278AD", "EPOCH": "2025-12-15T06:00:04.999968", "MEAN_MOTION": 15.79559037, "ECCENTRICITY": 0.00019647, "INCLINATION": 42.9975, "RA_OF_ASC_NODE": 236.5778, "ARG_OF_PERICENTER": 274.957, "MEAN_ANOMALY": 93.3616, "EPHEMERIS_TYPE": 0, "CLASSIFICATION_TYPE": "U", "NORAD_CAT_ID": 66818, "ELEMENT_SET_NO": 999, "REV_AT_EPOCH": 336, "BSTAR": -0.0088312862, "MEAN_MOTION_DOT": -0.01467598, "MEAN_MOTION_DDOT": 0}, "tle": {"line1": "1 66818U 25278AD  25349.25005787 -.01467598  00000+0 -88313-2 0  9996", "line2": "2 66818  42.9975 236.5778 0001964 274.9570  93.3616 15.79559037  3360"}}, "geometry": {"type": "Point", "coordinates": [33.17159789257987, 15.936912440336817]}}, {"type": "Feature", "properties": {"norad_id": 66819, "name": "STARLINK-35989", "group": "last-30-days", "lat": 13.285592841373827, "lon": 36.32767072043458, "alt_km": 338.8031623213192, "timestamp": "2025-12-16T03:53:25.817025+00:00", "meta": {"OBJECT_NAME": "STARLINK-35989", "OBJECT_ID": "2025-278AE", "EPOCH": "2025-12-15T06:00:04.999968", "MEAN_MOTION": 15.79474688, "ECCENTRICITY": 0.00018484, "INCLINATION": 42.9976, "RA_OF_ASC_NODE": 236.5663, "ARG_OF_PERICENTER": 273.8836, "MEAN_ANOMALY": 98.8213, "EPHEMERIS_TYPE": 0, "CLASSIFICATION_TYPE": "U", "NORAD_CAT_ID": 66819, "ELEMENT_SET_NO": 999, "REV_AT_EPOCH": 336, "BSTAR": -0.0089793763, "MEAN_MOTION_DOT": -0.01484097, "MEAN_MOTION_DDOT": 0}, "tle": {"line1": "1 66819U 25278AE  25349.25005787 -.01484097  00000+0 -89794-2 0  9994", "line2": "2 66819  42.9976 236.5663 0001848 273.8836  98.8213 15.79474688  3360"}}, "geometry": {"type": "Point", "coordinates": [36.32767072043458, 13.285592841373827]}}, {"type": "Feature", "properties": {"norad_id": 66820, "name": "KOMPSAT-7", "group": "last-30-days", "lat": 78.76563548384338, "lon": -106.56585007026888, "alt_km": 566.7695671016099, "timestamp": "2025-12-16T03:53:25.817036+00:00", "meta": {"OBJECT_NAME": "KOMPSAT-7", "OBJECT_ID": "2025-279A", "EPOCH": "2025-12-14T22:41:19.689792", "MEAN_MOTION": 14.98965885, "ECCENTRICITY": 0.00087651, "INCLINATION": 97.6417, "RA_OF_ASC_NODE": 294.7686, "ARG_OF_PERICENTER": 217.2843, "MEAN_ANOMALY": 142.7773, "EPHEMERIS_TYPE": 0, "CLASSIFICATION_TYPE": "U", "NORAD_CAT_ID": 66820, "ELEMENT_SET_NO": 999, "REV_AT_EPOCH": 198, "BSTAR": 0.00023616624, "MEAN_MOTION_DOT": 2.802e-05, "MEAN_MOTION_DDOT": 0}, "tle": {"line1": "1 66820U 25279A   25348.94536678  .00002802  00000+0  23617-3 0  9990", "line2": "2 66820  97.6417 294.7686 0008765 217.2843 142.7773 14.98965885  1985"}}, "geometry": {"type": "Point", "coordinates": [-106.56585007026888, 78.76563548384338]}}, {"type": "Feature", "properties": {"norad_id": 66821, "name": "STARLINK-35966", "group": "last-30-days", "lat": -43.679230961240414, "lon": 168.80164764184005, "alt_km": 369.4807429331022, "timestamp": "2025-12-16T03:53:25.817046+00:00", "meta": {"OBJECT_NAME": "STARLINK-35966", "OBJECT_ID": "2025-280A", "EPOCH": "2025-12-15T06:00:04.999968", "MEAN_MOTION": 15.71814211, "ECCENTRICITY": 0.00032824, "INCLINATION": 69.9975, "RA_OF_ASC_NODE": 191.7206, "ARG_OF_PERICENTER": 273.0767, "MEAN_ANOMALY": 287.0116, "EPHEMERIS_TYPE": 0, "CLASSIFICATION_TYPE": "U", "NORAD_CAT_ID": 66821, "ELEMENT_SET_NO": 999, "REV_AT_EPOCH": 330, "BSTAR": -0.017937949, "MEAN_MOTION_DOT": -0.02054958, "MEAN_MOTION_DDOT": 0}, "tle": {"line1": "1 66821U 25280A   25349.25005787 -.02054958  00000+0 -17938-1 0  9990", "line2": "2 66821  69.9975 191.7206 0003282 273.0767 287.0116 15.71814211  3305"}}, "geometry": {"type": "Point", "coordinates": [168.80164764184005, -43.679230961240414]}}, {"type": "Feature", "properties": {"norad_id": 66822, "name": "STARLINK-35958", "group": "last-30-days", "lat": -41.978042523568405, "lon": 170.02392425672772, "alt_km": 369.54149310060166, "timestamp": "2025-12-16T03:53:25.817057+00:00", "meta": {"OBJECT_NAME": "STARLINK-35958", "OBJECT_ID": "2025-280B", "EPOCH": "2025-12-15T06:00:04.999968", "MEAN_MOTION": 15.71811854, "ECCENTRICITY": 0.00034611, "INCLINATION": 69.9974, "RA_OF_ASC_NODE": 191.7185, "ARG_OF_PERICENTER": 267.0818, "MEAN_ANOMALY": 294.9247, "EPHEMERIS_TYPE": 0, "CLASSIFICATION_TYPE": "U", "NORAD_CAT_ID": 66822, "ELEMENT_SET_NO": 999, "REV_AT_EPOCH": 330, "BSTAR": -0.017909263, "MEAN_MOTION_DOT": -0.02052082, "MEAN_MOTION_DDOT": 0}, "tle": {"line1": "1 66822U 25280B   25349.25005787 -.02052082  00000+0 -17909-1 0  9995", "line2": "2 66822  69.9974 191.7185 0003461 267.0818 294.9247 15.71811854  3302"}}, "geometry": {"type": "Point", "coordinates": [170.02392425672772, -41.978042523568405]}}, {"type": "Feature", "properties": {"norad_id": 66823, "name": "STARLINK-35957", "group": "last-30-days", "lat": -40.27847716799475, "lon": 171.17246975959986, "alt_km": 369.5755182800576, "timestamp": "2025-12-16T03:53:25.817067+00:00", "meta": {"OBJECT_NAME": "STARLINK-35957", "OBJECT_ID": "2025-280C", "EPOCH": "2025-12-15T06:00:04.999968", "MEAN_MOTION": 15.7181597, "ECCENTRICITY": 0.00032375, "INCLINATION": 69.9972, "RA_OF_ASC_NODE": 191.7159, "ARG_OF_PERICENTER": 268.9912, "MEAN_ANOMALY": 294.9292, "EPHEMERIS_TYPE": 0, "CLASSIFICATION_TYPE": "U", "NORAD_CAT_ID": 66823, "ELEMENT_SET_NO": 999, "REV_AT_EPOCH": 330, "BSTAR": -0.01794791, "MEAN_MOTION_DOT": -0.02056049, "MEAN_MOTION_DDOT": 0}, "tle": {"line1": "1 66823U 25280C   25349.25005787 -.02056049  00000+0 -17948-1 0  9996", "line2": "2 66823  69.9972 191.7159 0003237 268.9912 294.9292 15.71815970  3301"}}, "geometry": {"type": "Point", "coordinates": [171.17246975959986, -40.27847716799475]}}, {"type": "Feature", "properties": {"norad_id": 66824, "name": "STARLINK-35896", "group": "last-30-days", "lat": -38.576979583769514, "lon": 172.2595608862181, "alt_km": 369.54435212264343, "timestamp": "2025-12-16T03:53:25.817079+00:00", "meta": {"OBJECT_NAME": "STARLINK-35896", "OBJECT_ID": "2025-280D", "EPOCH": "2025-12-15T06:00:04.999968", "MEAN_MOTION": 15.71826082, "ECCENTRICITY": 0.00030506, "INCLINATION": 69.9973, "RA_OF_ASC_NODE": 191.7137, "ARG_OF_PERICENTER": 273.0918, "MEAN_ANOMALY": 292.7365, "EPHEMERIS_TYPE": 0, "CLASSIFICATION_TYPE": "U", "NORAD_CAT_ID": 66824, "ELEMENT_SET_NO": 999, "REV_AT_EPOCH": 330, "BSTAR": -0.018047993, "MEAN_MOTION_DOT": -0.02066701, "MEAN_MOTION_DDOT": 0}, "tle": {"line1": "1 66824U 25280D   25349.25005787 -.02066701  00000+0 -18048-1 0  9995", "line2": "2 66824  69.9973 191.7137 0003050 273.0918 292.7365 15.71826082  3308"}}, "geometry": {"type": "Point", "coordinates": [172.2595608862181, -38.576979583769514]}}, {"type": "Feature", "properties": {"norad_id": 66825, "name": "STARLINK-35476", "group": "last-30-days", "lat": -36.85278341778268, "lon": 173.3033062191247, "alt_km": 369.4453499723204, "timestamp": "2025-12-16T03:53:25.817090+00:00", "meta": {"OBJECT_NAME": "STARLINK-35476", "OBJECT_ID": "2025-280E", "EPOCH": "2025-12-15T06:00:04.999968", "MEAN_MOTION": 15.71834007, "ECCENTRICITY": 0.00032522, "INCLINATION": 69.9971, "RA_OF_ASC_NODE": 191.7113, "ARG_OF_PERICENTER": 272.3219, "MEAN_ANOMALY": 295.4164, "EPHEMERIS_TYPE": 0, "CLASSIFICATION_TYPE": "U", "NORAD_CAT_ID": 66825, "ELEMENT_SET_NO": 999, "REV_AT_EPOCH": 315, "BSTAR": -0.018109677, "MEAN_MOTION_DOT": -0.02073736, "MEAN_MOTION_DDOT": 0}, "tle": {"line1": "1 66825U 25280E   25349.25005787 -.02073736  00000+0 -18110-1 0  9992", "line2": "2 66825  69.9971 191.7113 0003252 272.3219 295.4164 15.71834007  3157"}}, "geometry": {"type": "Point", "coordinates": [173.3033062191247, -36.85278341778268]}}]}